{"type": "FeatureCollection", "features": [ {"type": "Feature", "properties": {"norad_id": 32289, "name": "YAOGAN-3", "group": "resource", "lat": -11.646848883371092, "lon": -178.53313771112943, "alt_km": 603.534571559775, "timestamp": "2025-12-02T08:59:32.376160+00:00", "meta": {"OBJECT_NAME": "YAOGAN-3", "OBJECT_ID": "2007-055A", "EPOCH": "2025-12-01T20:51:03.931200", "MEAN_MOTION": 14.89771208, "ECCENTRICITY": 0.0001532, "INCLINATION": 97.8381, "RA_OF_ASC_NODE": 2.5926, "ARG_OF_PERICENTER": 76.996, "MEAN_ANOMALY": 283.1428, "EPHEMERIS_TYPE": 0, "CLASSIFICATION_TYPE": "U", "NORAD_CAT_ID": 32289, "ELEMENT_SET_NO": 999, "REV_AT_EPOCH": 97647, "BSTAR": 0.00026042, "MEAN_MOTION_DOT": 2.441e-05, "MEAN_MOTION_DDOT": 0}, "tle": {"line1": "1 32289U 07055A   25335.86879550  .00002441  00000+0  26042-3 0  9994", "line2": "2 32289  97.8381   2.5926 0001532  76.9960 283.1428 14.89771208976472"}}, "geometry": {"type": "Point", "coordinates": [-178.53313771112943, -11.646848883371092]}}, {"type": "Feature", "properties": {"norad_id": 32376, "name": "COSMO-SKYMED 2", "group": "resource", "lat": 35.688577315602984, "lon": 152.14427529757535, "alt_km": 619.3675812786314, "timestamp": "2025-12-02T08:59:32.376174+00:00", "meta": {"OBJECT_NAME": "COSMO-SKYMED 2", "OBJECT_ID": "2007-059A", "EPOCH": "2025-12-01T19:52:05.554848", "MEAN_MOTION": 14.82171664, "ECCENTRICITY": 0.000147, "INCLINATION": 97.8807, "RA_OF_ASC_NODE": 157.3156, "ARG_OF_PERICENTER": 85.1487, "MEAN_ANOMALY": 274.9894, "EPHEMERIS_TYPE": 0, "CLASSIFICATION_TYPE": "U", "NORAD_CAT_ID": 32376, "ELEMENT_SET_NO": 999, "REV_AT_EPOCH": 97276, "BSTAR": 9.0755e-05, "MEAN_MOTION_DOT": 6.71e-06, "MEAN_MOTION_DDOT": 0}, "tle": {"line1": "1 32376U 07059A   25335.82784207  .00000671  00000+0  90755-4 0  9991", "line2": "2 32376  97.8807 157.3156 0001470  85.1487 274.9894 14.82171664972769"}}, "geometry": {"type": "Point", "coordinates": [152.14427529757535, 35.688577315602984]}}, {"type": "Feature", "properties": {"norad_id": 32382, "name": "RADARSAT-2", "group": "resource", "lat": 50.57321495363014, "lon": 171.6963920637339, "alt_km": 786.5151437479581, "timestamp": "2025-12-02T08:59:32.376186+00:00", "meta": {"OBJECT_NAME": "RADARSAT-2", "OBJECT_ID": "2007-061A", "EPOCH": "2025-12-01T20:38:17.382624", "MEAN_MOTION": 14.29982856, "ECCENTRICITY": 0.0001081, "INCLINATION": 98.58, "RA_OF_ASC_NODE": 340.6081, "ARG_OF_PERICENTER": 90.3883, "MEAN_ANOMALY": 269.7423, "EPHEMERIS_TYPE": 0, "CLASSIFICATION_TYPE": "U", "NORAD_CAT_ID": 32382, "ELEMENT_SET_NO": 999, "REV_AT_EPOCH": 93775, "BSTAR": 5.4977e-05, "MEAN_MOTION_DOT": 9.8e-07, "MEAN_MOTION_DDOT": 0}, "tle": {"line1": "1 32382U 07061A   25335.85992341  .00000098  00000+0  54977-4 0  9993", "line2": "2 32382  98.5800 340.6081 0001081  90.3883 269.7423 14.29982856937751"}}, "geometry": {"type": "Point", "coordinates": [171.6963920637339, 50.57321495363014]}}, {"type": "Feature", "properties": {"norad_id": 32783, "name": "CARTOSAT-2A", "group": "resource", "lat": -62.69792533400765, "lon": 41.91029537864873, "alt_km": 641.594318464141, "timestamp": "2025-12-02T08:59:32.376199+00:00", "meta": {"OBJECT_NAME": "CARTOSAT-2A", "OBJECT_ID": "2008-021A", "EPOCH": "2025-12-02T04:24:30.559392", "MEAN_MOTION": 14.78903811, "ECCENTRICITY": 0.0012565, "INCLINATION": 97.7946, "RA_OF_ASC_NODE": 26.3364, "ARG_OF_PERICENTER": 37.5342, "MEAN_ANOMALY": 322.6745, "EPHEMERIS_TYPE": 0, "CLASSIFICATION_TYPE": "U", "NORAD_CAT_ID": 32783, "ELEMENT_SET_NO": 999, "REV_AT_EPOCH": 94968, "BSTAR": 0.00015642, "MEAN_MOTION_DOT": 1.104e-05, "MEAN_MOTION_DDOT": 0}, "tle": {"line1": "1 32783U 08021A   25336.18368703  .00001104  00000+0  15642-3 0  9995", "line2": "2 32783  97.7946  26.3364 0012565  37.5342 322.6745 14.78903811949681"}}, "geometry": {"type": "Point", "coordinates": [41.91029537864873, -62.69792533400765]}}, {"type": "Feature", "properties": {"norad_id": 33320, "name": "HUANJING 1A (HJ-1A)", "group": "resource", "lat": -4.039658771906488, "lon": -34.349062269960655, "alt_km": 617.4577296964962, "timestamp": "2025-12-02T08:59:32.376210+00:00", "meta": {"OBJECT_NAME": "HUANJING 1A (HJ-1A)", "OBJECT_ID": "2008-041A", "EPOCH": "2025-12-02T05:46:21.713376", "MEAN_MOTION": 14.83339261, "ECCENTRICITY": 0.002068, "INCLINATION": 97.6533, "RA_OF_ASC_NODE": 324.9783, "ARG_OF_PERICENTER": 66.8541, "MEAN_ANOMALY": 293.485, "EPHEMERIS_TYPE": 0, "CLASSIFICATION_TYPE": "U", "NORAD_CAT_ID": 33320, "ELEMENT_SET_NO": 999, "REV_AT_EPOCH": 92920, "BSTAR": 0.00022129, "MEAN_MOTION_DOT": 1.769e-05, "MEAN_MOTION_DDOT": 0}, "tle": {"line1": "1 33320U 08041A   25336.24052909  .00001769  00000+0  22129-3 0  9995", "line2": "2 33320  97.6533 324.9783 0020680  66.8541 293.4850 14.83339261929201"}}, "geometry": {"type": "Point", "coordinates": [-34.349062269960655, -4.039658771906488]}}, {"type": "Feature", "properties": {"norad_id": 33321, "name": "HUANJING 1B (HJ-1B)", "group": "resource", "lat": -58.13251900621638, "lon": 136.36201728947782, "alt_km": 644.9384373840558, "timestamp": "2025-12-02T08:59:32.376221+00:00", "meta": {"OBJECT_NAME": "HUANJING 1B (HJ-1B)", "OBJECT_ID": "2008-041B", "EPOCH": "2025-12-02T04:40:56.272800", "MEAN_MOTION": 14.82776334, "ECCENTRICITY": 0.0038134, "INCLINATION": 97.6395, "RA_OF_ASC_NODE": 328.6592, "ARG_OF_PERICENTER": 109.0893, "MEAN_ANOMALY": 251.4457, "EPHEMERIS_TYPE": 0, "CLASSIFICATION_TYPE": "U", "NORAD_CAT_ID": 33321, "ELEMENT_SET_NO": 999, "REV_AT_EPOCH": 92921, "BSTAR": 0.00018004, "MEAN_MOTION_DOT": 1.422e-05, "MEAN_MOTION_DDOT": 0}, "tle": {"line1": "1 33321U 08041B   25336.19509575  .00001422  00000+0  18004-3 0  9999", "line2": "2 33321  97.6395 328.6592 0038134 109.0893 251.4457 14.82776334929213"}}, "geometry": {"type": "Point", "coordinates": [136.36201728947782, -58.13251900621638]}}, {"type": "Feature", "properties": {"norad_id": 33331, "name": "GEOEYE 1", "group": "resource", "lat": 4.857644210223621, "lon": -131.51982410422292, "alt_km": 681.8837719942385, "timestamp": "2025-12-02T08:59:32.376231+00:00", "meta": {"OBJECT_NAME": "GEOEYE 1", "OBJECT_ID": "2008-042A", "EPOCH": "2025-12-02T04:55:01.111008", "MEAN_MOTION": 14.64788259, "ECCENTRICITY": 0.0003041, "INCLINATION": 98.1265, "RA_OF_ASC_NODE": 47.6167, "ARG_OF_PERICENTER": 322.0999, "MEAN_ANOMALY": 37.9989, "EPHEMERIS_TYPE": 0, "CLASSIFICATION_TYPE": "U", "NORAD_CAT_ID": 33331, "ELEMENT_SET_NO": 999, "REV_AT_EPOCH": 92131, "BSTAR": 0.00014846, "MEAN_MOTION_DOT": 7.44e-06, "MEAN_MOTION_DDOT": 0}, "tle": {"line1": "1 33331U 08042A   25336.20487397  .00000744  00000+0  14846-3 0  9996", "line2": "2 33331  98.1265  47.6167 0003041 322.0999  37.9989 14.64788259921314"}}, "geometry": {"type": "Point", "coordinates": [-131.51982410422292, 4.857644210223621]}}, {"type": "Feature", "properties": {"norad_id": 33396, "name": "THEOS", "group": "resource", "lat": -74.74088348843443, "lon": -178.87017744116244, "alt_km": 833.0676280496737, "timestamp": "2025-12-02T08:59:32.376242+00:00", "meta": {"OBJECT_NAME": "THEOS", "OBJECT_ID": "2008-049A", "EPOCH": "2025-12-01T19:56:50.621280", "MEAN_MOTION": 14.20092499, "ECCENTRICITY": 0.0001089, "INCLINATION": 98.5883, "RA_OF_ASC_NODE": 34.2418, "ARG_OF_PERICENTER": 100.4517, "MEAN_ANOMALY": 259.6783, "EPHEMERIS_TYPE": 0, "CLASSIFICATION_TYPE": "U", "NORAD_CAT_ID": 33396, "ELEMENT_SET_NO": 999, "REV_AT_EPOCH": 88995, "BSTAR": 5.5461e-05, "MEAN_MOTION_DOT": 7.6e-07, "MEAN_MOTION_DDOT": 0}, "tle": {"line1": "1 33396U 08049A   25335.83114145  .00000076  00000+0  55461-4 0  9997", "line2": "2 33396  98.5883  34.2418 0001089 100.4517 259.6783 14.20092499889954"}}, "geometry": {"type": "Point", "coordinates": [-178.87017744116244, -74.74088348843443]}}, {"type": "Feature", "properties": {"norad_id": 33412, "name": "COSMO-SKYMED 3", "group": "resource", "lat": 50.417459498501245, "lon": 176.98889726238878, "alt_km": 556.0484742557264, "timestamp": "2025-12-02T08:59:32.376273+00:00", "meta": {"OBJECT_NAME": "COSMO-SKYMED 3", "OBJECT_ID": "2008-054A", "EPOCH": "2025-12-01T20:00:06.114240", "MEAN_MOTION": 15.05190749, "ECCENTRICITY": 0.0015245, "INCLINATION": 97.8478, "RA_OF_ASC_NODE": 186.0423, "ARG_OF_PERICENTER": 210.1619, "MEAN_ANOMALY": 149.873, "EPHEMERIS_TYPE": 0, "CLASSIFICATION_TYPE": "U", "NORAD_CAT_ID": 33412, "ELEMENT_SET_NO": 999, "REV_AT_EPOCH": 92723, "BSTAR": 0.00032321, "MEAN_MOTION_DOT": 4.556e-05, "MEAN_MOTION_DDOT": 0}, "tle": {"line1": "1 33412U 08054A   25335.83340410  .00004556  00000+0  32321-3 0  9994", "line2": "2 33412  97.8478 186.0423 0015245 210.1619 149.8730 15.05190749927235"}}, "geometry": {"type": "Point", "coordinates": [176.98889726238878, 50.417459498501245]}}, {"type": "Feature", "properties": {"norad_id": 33446, "name": "YAOGAN-4", "group": "resource", "lat": 24.288711410541538, "lon": 90.17683990256533, "alt_km": 629.8379247179537, "timestamp": "2025-12-02T08:59:32.376285+00:00", "meta": {"OBJECT_NAME": "YAOGAN-4", "OBJECT_ID": "2008-061A", "EPOCH": "2025-12-02T01:48:54.750816", "MEAN_MOTION": 14.82626572, "ECCENTRICITY": 0.0014513, "INCLINATION": 97.9167, "RA_OF_ASC_NODE": 266.2805, "ARG_OF_PERICENTER": 358.8966, "MEAN_ANOMALY": 1.2213, "EPHEMERIS_TYPE": 0, "CLASSIFICATION_TYPE": "U", "NORAD_CAT_ID": 33446, "ELEMENT_SET_NO": 999, "REV_AT_EPOCH": 91645, "BSTAR": 0.00023667, "MEAN_MOTION_DOT": 1.856e-05, "MEAN_MOTION_DDOT": 0}, "tle": {"line1": "1 33446U 08061A   25336.07563369  .00001856  00000+0  23667-3 0  9999", "line2": "2 33446  97.9167 266.2805 0014513 358.8966   1.2213 14.82626572916456"}}, "geometry": {"type": "Point", "coordinates": [90.17683990256533, 24.288711410541538]}}]}